[{"OBJECT_NAME":"PREFIRE-2","OBJECT_ID":"2024-099A","EPOCH":"2026-03-09T13:43:59.023488","MEAN_MOTION":15.2026253,"ECCENTRICITY":0.0011923,"INCLINATION":97.4208,"RA_OF_ASC_NODE":286.39,"ARG_OF_PERICENTER":187.6312,"MEAN_ANOMALY":172.4744,"EPHEMERIS_TYPE":0,"CLASSIFICATION_TYPE":"U","NORAD_CAT_ID":59881,"ELEMENT_SET_NO":999,"REV_AT_EPOCH":9899,"BSTAR":0.00023093563,"MEAN_MOTION_DOT":4.952e-5,"MEAN_MOTION_DDOT":0},{"OBJECT_NAME":"FLOCK 4H-11","OBJECT_ID":"2025-276BA","EPOCH":"2026-03-09T17:03:35.203104","MEAN_MOTION":15.19866616,"ECCENTRICITY":0.00029648,"INCLINATION":97.4275,"RA_OF_ASC_NODE":144.0652,"ARG_OF_PERICENTER":29.2184,"MEAN_ANOMALY":330.9216,"EPHEMERIS_TYPE":0,"CLASSIFICATION_TYPE":"U","NORAD_CAT_ID":66714,"ELEMENT_SET_NO":999,"REV_AT_EPOCH":1532,"BSTAR":0.0004210568,"MEAN_MOTION_DOT":8.971e-5,"MEAN_MOTION_DDOT":0}]
